NORAD_CAT_ID,OBJECT_NAME,OBJECT_TYPE,EPOCH,MEAN_MOTION,ECCENTRICITY,INCLINATION,RA_OF_ASC_NODE,ARG_OF_PERICENTER,MEAN_ANOMALY,BSTAR,MEAN_MOTION_DOT,MEAN_MOTION_DDOT,TLE_LINE0,TLE_LINE1,TLE_LINE2,SEMIMAJOR_AXIS,PERIOD,APOGEE,PERIGEE,DECAYED
53974.0,STARLINK-5159,PAYLOAD,2024-03-14 03:06:39,15.08843845,0.000147,53.2146,220.8876,88.1283,271.9877,0.00010074,1.316e-05,0.0,0 STARLINK-5159,1 53974U 22125L   24074.12962932  .00001316  00000-0  10074-3 0  9997,2 53974  53.2146 220.8876 0001470  88.1283 271.9877 15.08843845 80078,6917.869,95.437,540.751,538.717,0.0
53974.0,STARLINK-5159,PAYLOAD,2024-03-16 12:20:33,15.08831832,0.0001346,53.2165,210.186,82.7562,277.3583,-1.1492e-05,-4.71e-06,0.0,0 STARLINK-5159,1 53974U 22125L   24076.51428169 -.00000471  00000-0 -11492-4 0  9990,2 53974  53.2165 210.1860 0001346  82.7562 277.3583 15.08831832 80501,6917.905,95.438,540.702,538.839,0.0
53974.0,STARLINK-5159,PAYLOAD,2024-03-16 13:55:57,15.08832117,0.0001357,53.2162,209.8881,84.1539,275.9608,-1.1783e-05,-4.75e-06,0.0,0 STARLINK-5159,1 53974U 22125L   24076.58052162 -.00000475  00000-0 -11783-4 0  9990,2 53974  53.2162 209.8881 0001357  84.1539 275.9608 15.08832117 80440,6917.904,95.438,540.708,538.831,0.0
53974.0,STARLINK-5159,PAYLOAD,2024-03-16 20:17:28,15.08833002,0.0001363,53.2164,208.6984,89.0832,271.0316,0.00013827,1.913e-05,0.0,0 STARLINK-5159,1 53974U 22125L   24076.84547263  .00001913  00000-0  13827-3 0  9996,2 53974  53.2164 208.6984 0001363  89.0832 271.0316 15.08833002 80559,6917.902,95.438,540.71,538.824,0.0
53974.0,STARLINK-5159,PAYLOAD,2024-03-17 04:14:24,15.08822575,0.0001377,53.2166,207.2118,93.5307,266.5843,0.00012769,1.744e-05,0.0,0 STARLINK-5159,1 53974U 22125L   24077.17667815  .00001744  00000-0  12769-3 0  9995,2 53974  53.2166 207.2118 0001377  93.5307 266.5843 15.08822575 80600,6917.934,95.439,540.751,538.846,0.0
53974.0,STARLINK-5159,PAYLOAD,2024-03-17 12:11:20,15.08835887,0.0001352,53.2165,205.7247,91.6651,268.4496,0.00014435,2.01e-05,0.0,0 STARLINK-5159,1 53974U 22125L   24077.50787472  .00002010  00000-0  14435-3 0  9993,2 53974  53.2165 205.7247 0001352  91.6651 268.4496 15.08835887 80659,6917.893,95.438,540.693,538.823,0.0
53974.0,STARLINK-5159,PAYLOAD,2024-03-17 13:46:43,15.08837462,0.0001353,53.2164,205.4272,90.7716,269.3431,0.00015699,2.211e-05,0.0,0 STARLINK-5159,1 53974U 22125L   24077.57411380  .00002211  00000-0  15699-3 0  9998,2 53974  53.2164 205.4272 0001353  90.7716 269.3431 15.08837462 80599,6917.888,95.438,540.689,538.817,0.0
53974.0,STARLINK-5159,PAYLOAD,2024-03-17 20:08:15,15.08845098,0.0001359,53.2165,204.2376,91.6422,268.4726,0.0002269,3.326e-05,0.0,0 STARLINK-5159,1 53974U 22125L   24077.83906872  .00003326  00000-0  22690-3 0  9999,2 53974  53.2165 204.2376 0001359  91.6422 268.4726 15.08845098 80706,6917.865,95.437,540.67,538.79,0.0
53974.0,STARLINK-5159,PAYLOAD,2024-03-18 04:05:12,15.08826626,0.0001287,53.2166,202.7511,89.9363,270.1777,6.1825e-05,6.96e-06,0.0,0 STARLINK-5159,1 53974U 22125L   24078.17028658  .00000696  00000-0  61825-4 0  9995,2 53974  53.2166 202.7511 0001287  89.9363 270.1777 15.08826626 80752,6917.921,95.438,540.677,538.896,0.0
53974.0,STARLINK-5159,PAYLOAD,2024-03-18 12:02:07,15.08844627,0.0001376,53.2155,201.264,97.0121,263.1028,0.00022942,3.366e-05,0.0,0 STARLINK-5159,1 53974U 22125L   24078.50147744  .00003366  00000-0  22942-3 0  9993,2 53974  53.2155 201.2640 0001376  97.0121 263.1028 15.08844627 80806,6917.866,95.437,540.683,538.779,0.0
53974.0,STARLINK-5159,PAYLOAD,2024-03-18 13:37:30,15.08849663,0.0001363,53.2155,200.9668,93.7108,266.404,0.00031551,4.738e-05,0.0,0 STARLINK-5159,1 53974U 22125L   24078.56771584  .00004738  00000-0  31551-3 0  9994,2 53974  53.2155 200.9668 0001363  93.7108 266.4040 15.08849663 80744,6917.851,95.437,540.659,538.773,0.0
53974.0,STARLINK-5159,PAYLOAD,2024-03-18 19:59:02,15.08869308,0.0001353,53.2152,199.7772,93.0082,267.1065,0.001026,0.00016092,0.0,0 STARLINK-5159,1 53974U 22125L   24078.83267069  .00016092  00000-0  10260-2 0  9991,2 53974  53.2152 199.7772 0001353  93.0082 267.1065 15.08869308 80850,6917.791,95.436,540.592,538.72,0.0
53974.0,STARLINK-5159,PAYLOAD,2024-03-19 11:52:54,15.08860522,0.0001455,53.2151,196.8036,86.3309,273.7849,0.0010498,0.00016468,0.0,0 STARLINK-5159,1 53974U 22125L   24079.49507283  .00016468  00000-0  10498-2 0  9999,2 53974  53.2151 196.8036 0001455  86.3309 273.7849 15.08860522 80885,6917.818,95.436,540.689,538.676,0.0
53974.0,STARLINK-5159,PAYLOAD,2024-03-19 13:28:17,15.08860502,0.0001367,53.2151,196.5067,84.7193,275.3955,0.0017944,0.00028401,0.0,0 STARLINK-5159,1 53974U 22125L   24079.56131284  .00028401  00000-0  17944-2 0  9994,2 53974  53.2151 196.5067 0001367  84.7193 275.3955 15.08860502 80964,6917.818,95.436,540.628,538.737,0.0
53974.0,STARLINK-5159,PAYLOAD,2024-03-20 06:57:32,15.0884386,0.0001505,53.215,193.2364,87.2668,272.8497,0.001097,0.00017216,0.0,0 STARLINK-5159,1 53974U 22125L   24080.28995928  .00017216  00000-0  10970-2 0  9992,2 53974  53.2150 193.2364 0001505  87.2668 272.8497 15.08843860 81070,6917.869,95.437,540.775,538.692,0.0
53974.0,STARLINK-5159,PAYLOAD,2024-03-20 13:19:05,15.08846736,0.0001251,53.2149,192.0467,112.2966,247.8159,0.0018011,0.00028498,0.0,0 STARLINK-5159,1 53974U 22125L   24080.55492036  .00028498  00000-0  18011-2 0  9992,2 53974  53.2149 192.0467 0001251 112.2966 247.8159 15.08846736 81046,6917.86,95.437,540.59,538.859,0.0
53974.0,STARLINK-5159,PAYLOAD,2024-03-20 14:54:28,15.08840572,0.0001314,53.215,191.749,97.2901,262.824,0.0013691,0.00021569,0.0,0 STARLINK-5159,1 53974U 22125L   24080.62116157  .00021569  00000-0  13691-2 0  9998,2 53974  53.2150 191.7490 0001314  97.2901 262.8240 15.08840572 81120,6917.879,95.438,540.653,538.835,0.0
53974.0,STARLINK-5159,PAYLOAD,2024-03-21 00:26:47,15.08839372,0.0001332,53.2146,189.9646,98.5019,261.6124,0.00096577,0.00015115,0.0,0 STARLINK-5159,1 53974U 22125L   24081.01860351  .00015115  00000-0  96577-3 0  9999,2 53974  53.2146 189.9646 0001332  98.5019 261.6124 15.08839372 81181,6917.882,95.438,540.669,538.826,0.0
53974.0,STARLINK-5159,PAYLOAD,2024-03-21 14:45:15,15.08855547,0.0001505,53.2152,187.2889,96.0349,264.0815,0.0012834,0.00020205,0.0,0 STARLINK-5159,1 53974U 22125L   24081.61476162  .00020205  00000-0  12834-2 0  9997,2 53974  53.2152 187.2889 0001505  96.0349 264.0815 15.08855547 81208,6917.833,95.437,540.739,538.657,0.0
53974.0,STARLINK-5159,PAYLOAD,2024-03-21 16:20:38,15.08872367,0.0001459,53.2148,186.9901,94.7071,265.4087,0.0017048,0.00026972,0.0,0 STARLINK-5159,1 53974U 22125L   24081.68099804  .00026972  00000-0  17048-2 0  9997,2 53974  53.2148 186.9901 0001459  94.7071 265.4087 15.08872367 81282,6917.781,95.436,540.656,538.637,0.0
53974.0,STARLINK-5159,PAYLOAD,2024-03-22 11:25:15,15.08873127,0.0001624,53.2162,183.4228,100.4367,259.6808,0.00088345,0.00013813,0.0,0 STARLINK-5159,1 53974U 22125L   24082.47586979  .00013813  00000-0  88345-3 0  9998,2 53974  53.2162 183.4228 0001624 100.4367 259.6808 15.08873127 81404,6917.779,95.435,540.768,538.521,0.0
53974.0,STARLINK-5159,PAYLOAD,2024-03-22 13:00:38,15.08873227,0.0001667,53.2163,183.1267,91.9016,268.2167,0.00086291,0.00013484,0.0,0 STARLINK-5159,1 53974U 22125L   24082.54210883  .00013484  00000-0  86291-3 0  9996,2 53974  53.2163 183.1267 0001667  91.9016 268.2167 15.08873227 81345,6917.779,95.435,540.797,538.491,0.0
53974.0,STARLINK-5159,PAYLOAD,2024-03-23 11:16:02,15.0882452,0.0001422,53.2153,178.9596,109.0228,251.0918,0.0018474,0.00029223,0.0,0 STARLINK-5159,1 53974U 22125L   24083.46947910  .00029223  00000-0  18474-2 0  9991,2 53974  53.2153 178.9596 0001422 109.0228 251.0918 15.08824520 81555,6917.928,95.439,540.776,538.809,0.0
53974.0,STARLINK-5159,PAYLOAD,2024-03-23 12:51:26,15.0882328,0.0001484,53.2163,178.6628,109.4102,250.705,0.0018658,0.00029517,0.0,0 STARLINK-5159,1 53974U 22125L   24083.53572009  .00029517  00000-0  18658-2 0  9992,2 53974  53.2163 178.6628 0001484 109.4102 250.7050 15.08823280 81490,6917.931,95.439,540.823,538.77,0.0
53974.0,STARLINK-5159,PAYLOAD,2024-03-24 12:42:12,15.08883704,0.0001668,53.2175,174.2054,88.3413,271.777,0.0022364,0.00035527,0.0,0 STARLINK-5159,1 53974U 22125L   24084.52931669  .00035527  00000-0  22364-2 0  9990,2 53974  53.2175 174.2054 0001668  88.3413 271.7770 15.08883704 81716,6917.747,95.435,540.766,538.458,0.0
53974.0,STARLINK-5159,PAYLOAD,2024-03-24 15:52:58,15.08898411,0.0001639,53.2167,173.6051,81.8597,278.2581,0.0027226,0.00043379,0.0,0 STARLINK-5159,1 53974U 22125L   24084.66179184  .00043379  00000-0  27226-2 0  9997,2 53974  53.2167 173.6051 0001639  81.8597 278.2581 15.08898411 81663,6917.702,95.434,540.701,538.433,0.0
53974.0,STARLINK-5159,PAYLOAD,2024-03-25 12:33:00,15.08847401,0.0001471,53.2167,169.7443,118.8285,241.2855,0.0023456,0.00037247,0.0,0 STARLINK-5159,1 53974U 22125L   24085.52292043  .00037247  00000-0  23456-2 0  9991,2 53974  53.2167 169.7443 0001471 118.8285 241.2855 15.08847401 81862,6917.858,95.437,540.74,538.705,0.0
53974.0,STARLINK-5159,PAYLOAD,2024-03-26 12:23:47,15.08815126,0.0001589,53.2165,165.2849,89.9433,270.1741,-0.00075855,-0.00012332,0.0,0 STARLINK-5159,1 53974U 22125L   24086.51651789 -.00012332  00000-0 -75855-3 0  9998,2 53974  53.2165 165.2849 0001589  89.9433 270.1741 15.08815126 82016,6917.956,95.439,540.921,538.722,0.0
53974.0,STARLINK-5159,PAYLOAD,2024-03-26 21:56:06,15.08816147,0.0001563,53.2154,163.4986,81.8646,278.2523,0.00067253,0.00010425,0.0,0 STARLINK-5159,1 53974U 22125L   24086.91396766  .00010425  00000-0  67253-3 0  9995,2 53974  53.2154 163.4986 0001563  81.8646 278.2523 15.08816147 82005,6917.953,95.439,540.9,538.737,0.0
53974.0,STARLINK-5159,PAYLOAD,2024-03-27 12:14:35,15.08844684,0.0001655,53.2148,160.825,81.6743,278.4437,0.0014146,0.000223,0.0,0 STARLINK-5159,1 53974U 22125L   24087.51013250  .00022300  00000-0  14146-2 0  9993,2 53974  53.2148 160.8250 0001655  81.6743 278.4437 15.08844684 82161,6917.866,95.437,540.876,538.586,0.0
